SILVERSAT
1 66909U 98067XV  26112.46652165  .03433955  11935-4  14877-2 0  9991
2 66909  51.6065 195.5293 0011992 340.7155  19.3409 16.21665143 22146
ISS OBJECT XW
1 66910U 98067XW  26112.49939816  .00261064  00000+0  97072-3 0  9999
2 66910  51.6166 199.5933 0011235 340.6031  19.4544 15.86692985 22096
ISS OBJECT XY
1 66912U 98067XY  26112.48115263  .00093742  00000+0  65867-3 0  9995
2 66912  51.6234 204.0456 0007529 337.7040  22.3630 15.73346996 22020
KNACKSAT-2
1 67683U 98067XZ  26112.52999185  .00027970  00000+0  40839-3 0  9991
2 67683  51.6302 213.4096 0012105 351.5455   8.5330 15.55355324 11606
CORAL
1 67684U 98067YA  26112.50328663  .00066972  00000+0  74717-3 0  9994
2 67684  51.6270 211.7252 0015880 344.4407  15.6097 15.62013258 11623
GXIBA-1
1 67685U 98067YB  26112.50919874  .00032459  00000+0  45849-3 0  9992
2 67685  51.6288 213.2705 0014010 348.6455  11.4218 15.56146003 11601
UITMSAT-2
1 67686U 98067YC  26112.47458833  .00037166  00000+0  49560-3 0  9996
2 67686  51.6283 213.0418 0010982 329.2296  30.8051 15.57671378 11607
HMU-SAT2
1 67687U 98067YD  26112.51879594  .00029983  00000+0  43023-3 0  9999
2 67687  51.6310 213.3403 0010219 330.7619  29.2799 15.55813444 11527
LEOPARD
1 67688U 98067YE  26112.49035446  .00037986  00000+0  51970-3 0  9999
2 67688  51.6300 213.1478 0010625 328.7653  31.2707 15.56976601 11521
CREW DRAGON 12
1 67796U 26031A   26112.52244765  .00007653  00000+0  14744-3 0  9997
2 67796  51.6320 215.6072 0006766 337.8366  22.2329 15.48891662563248
PROGRESS-MS 33
1 68319U 26058A   26112.52244765  .00007653  00000+0  14744-3 0  9998
2 68319  51.6320 215.6072 0006766 337.8366  22.2329 15.48891662  4756
CYGNUS NG-24
1 68689U 26079A   26112.52244765  .00007653  00000+0  14744-3 0  9991
2 68689  51.6320 215.6072 0006766 337.8366  22.2329 15.48891662  1720
