[{"OBJECT_NAME":"SILVERSAT","OBJECT_ID":"1998-067XV","EPOCH":"2026-04-22T11:11:47.470560","MEAN_MOTION":16.21665143,"ECCENTRICITY":0.00119923,"INCLINATION":51.6065,"RA_OF_ASC_NODE":195.5293,"ARG_OF_PERICENTER":340.7155,"MEAN_ANOMALY":19.3409,"EPHEMERIS_TYPE":0,"CLASSIFICATION_TYPE":"U","NORAD_CAT_ID":66909,"ELEMENT_SET_NO":999,"REV_AT_EPOCH":2214,"BSTAR":0.0014877052,"MEAN_MOTION_DOT":0.03433955,"MEAN_MOTION_DDOT":1.193529e-5},{"OBJECT_NAME":"ISS OBJECT XW","OBJECT_ID":"1998-067XW","EPOCH":"2026-04-22T11:59:08.001024","MEAN_MOTION":15.86692985,"ECCENTRICITY":0.0011235,"INCLINATION":51.6166,"RA_OF_ASC_NODE":199.5933,"ARG_OF_PERICENTER":340.6031,"MEAN_ANOMALY":19.4544,"EPHEMERIS_TYPE":0,"CLASSIFICATION_TYPE":"U","NORAD_CAT_ID":66910,"ELEMENT_SET_NO":999,"REV_AT_EPOCH":2209,"BSTAR":0.00097072,"MEAN_MOTION_DOT":0.00261064,"MEAN_MOTION_DDOT":0},{"OBJECT_NAME":"ISS OBJECT XY","OBJECT_ID":"1998-067XY","EPOCH":"2026-04-22T11:32:51.587232","MEAN_MOTION":15.73346996,"ECCENTRICITY":0.00075294,"INCLINATION":51.6234,"RA_OF_ASC_NODE":204.0456,"ARG_OF_PERICENTER":337.704,"MEAN_ANOMALY":22.363,"EPHEMERIS_TYPE":0,"CLASSIFICATION_TYPE":"U","NORAD_CAT_ID":66912,"ELEMENT_SET_NO":999,"REV_AT_EPOCH":2202,"BSTAR":0.00065866892,"MEAN_MOTION_DOT":0.00093742,"MEAN_MOTION_DDOT":0},{"OBJECT_NAME":"KNACKSAT-2","OBJECT_ID":"1998-067XZ","EPOCH":"2026-04-22T12:43:11.295840","MEAN_MOTION":15.55355324,"ECCENTRICITY":0.0012105,"INCLINATION":51.6302,"RA_OF_ASC_NODE":213.4096,"ARG_OF_PERICENTER":351.5455,"MEAN_ANOMALY":8.533,"EPHEMERIS_TYPE":0,"CLASSIFICATION_TYPE":"U","NORAD_CAT_ID":67683,"ELEMENT_SET_NO":999,"REV_AT_EPOCH":1160,"BSTAR":0.00040839,"MEAN_MOTION_DOT":0.0002797,"MEAN_MOTION_DDOT":0},{"OBJECT_NAME":"CORAL","OBJECT_ID":"1998-067YA","EPOCH":"2026-04-22T12:04:43.964832","MEAN_MOTION":15.62013258,"ECCENTRICITY":0.001588,"INCLINATION":51.627,"RA_OF_ASC_NODE":211.7252,"ARG_OF_PERICENTER":344.4407,"MEAN_ANOMALY":15.6097,"EPHEMERIS_TYPE":0,"CLASSIFICATION_TYPE":"U","NORAD_CAT_ID":67684,"ELEMENT_SET_NO":999,"REV_AT_EPOCH":1162,"BSTAR":0.00074717,"MEAN_MOTION_DOT":0.00066972,"MEAN_MOTION_DDOT":0},{"OBJECT_NAME":"GXIBA-1","OBJECT_ID":"1998-067YB","EPOCH":"2026-04-22T12:13:14.771136","MEAN_MOTION":15.56146003,"ECCENTRICITY":0.001401,"INCLINATION":51.6288,"RA_OF_ASC_NODE":213.2705,"ARG_OF_PERICENTER":348.6455,"MEAN_ANOMALY":11.4218,"EPHEMERIS_TYPE":0,"CLASSIFICATION_TYPE":"U","NORAD_CAT_ID":67685,"ELEMENT_SET_NO":999,"REV_AT_EPOCH":1160,"BSTAR":0.00045849,"MEAN_MOTION_DOT":0.00032459,"MEAN_MOTION_DDOT":0},{"OBJECT_NAME":"UITMSAT-2","OBJECT_ID":"1998-067YC","EPOCH":"2026-04-22T11:23:24.431712","MEAN_MOTION":15.57671378,"ECCENTRICITY":0.00109823,"INCLINATION":51.6283,"RA_OF_ASC_NODE":213.0418,"ARG_OF_PERICENTER":329.2296,"MEAN_ANOMALY":30.8051,"EPHEMERIS_TYPE":0,"CLASSIFICATION_TYPE":"U","NORAD_CAT_ID":67686,"ELEMENT_SET_NO":999,"REV_AT_EPOCH":1160,"BSTAR":0.00049559989,"MEAN_MOTION_DOT":0.00037166,"MEAN_MOTION_DDOT":0},{"OBJECT_NAME":"HMU-SAT2","OBJECT_ID":"1998-067YD","EPOCH":"2026-04-22T12:27:03.969216","MEAN_MOTION":15.55813444,"ECCENTRICITY":0.0010219,"INCLINATION":51.631,"RA_OF_ASC_NODE":213.3403,"ARG_OF_PERICENTER":330.7619,"MEAN_ANOMALY":29.2799,"EPHEMERIS_TYPE":0,"CLASSIFICATION_TYPE":"U","NORAD_CAT_ID":67687,"ELEMENT_SET_NO":999,"REV_AT_EPOCH":1152,"BSTAR":0.00043023,"MEAN_MOTION_DOT":0.00029983,"MEAN_MOTION_DDOT":0},{"OBJECT_NAME":"LEOPARD","OBJECT_ID":"1998-067YE","EPOCH":"2026-04-22T11:46:06.625344","MEAN_MOTION":15.56976601,"ECCENTRICITY":0.0010625,"INCLINATION":51.63,"RA_OF_ASC_NODE":213.1478,"ARG_OF_PERICENTER":328.7653,"MEAN_ANOMALY":31.2707,"EPHEMERIS_TYPE":0,"CLASSIFICATION_TYPE":"U","NORAD_CAT_ID":67688,"ELEMENT_SET_NO":999,"REV_AT_EPOCH":1152,"BSTAR":0.0005197,"MEAN_MOTION_DOT":0.00037986,"MEAN_MOTION_DDOT":0},{"OBJECT_NAME":"CREW DRAGON 12","OBJECT_ID":"2026-031A","EPOCH":"2026-04-22T12:32:19.476960","MEAN_MOTION":15.48891662,"ECCENTRICITY":0.00067665,"INCLINATION":51.632,"RA_OF_ASC_NODE":215.6072,"ARG_OF_PERICENTER":337.8366,"MEAN_ANOMALY":22.2329,"EPHEMERIS_TYPE":0,"CLASSIFICATION_TYPE":"U","NORAD_CAT_ID":67796,"ELEMENT_SET_NO":999,"REV_AT_EPOCH":56324,"BSTAR":0.00014744034,"MEAN_MOTION_DOT":7.653e-5,"MEAN_MOTION_DDOT":0},{"OBJECT_NAME":"PROGRESS-MS 33","OBJECT_ID":"2026-058A","EPOCH":"2026-04-22T12:32:19.476960","MEAN_MOTION":15.48891662,"ECCENTRICITY":0.00067665,"INCLINATION":51.632,"RA_OF_ASC_NODE":215.6072,"ARG_OF_PERICENTER":337.8366,"MEAN_ANOMALY":22.2329,"EPHEMERIS_TYPE":0,"CLASSIFICATION_TYPE":"U","NORAD_CAT_ID":68319,"ELEMENT_SET_NO":999,"REV_AT_EPOCH":475,"BSTAR":0.00014744034,"MEAN_MOTION_DOT":7.653e-5,"MEAN_MOTION_DDOT":0},{"OBJECT_NAME":"CYGNUS NG-24","OBJECT_ID":"2026-079A","EPOCH":"2026-04-22T12:32:19.476960","MEAN_MOTION":15.48891662,"ECCENTRICITY":0.00067665,"INCLINATION":51.632,"RA_OF_ASC_NODE":215.6072,"ARG_OF_PERICENTER":337.8366,"MEAN_ANOMALY":22.2329,"EPHEMERIS_TYPE":0,"CLASSIFICATION_TYPE":"U","NORAD_CAT_ID":68689,"ELEMENT_SET_NO":999,"REV_AT_EPOCH":172,"BSTAR":0.00014744034,"MEAN_MOTION_DOT":7.653e-5,"MEAN_MOTION_DDOT":0}]
